[{"OBJECT_NAME":"OBJECT V","OBJECT_ID":"2023-085V","EPOCH":"2026-03-09T21:44:00.165408","MEAN_MOTION":15.30745852,"ECCENTRICITY":0.00069081,"INCLINATION":97.4843,"RA_OF_ASC_NODE":179.3833,"ARG_OF_PERICENTER":71.0503,"MEAN_ANOMALY":289.1485,"EPHEMERIS_TYPE":0,"CLASSIFICATION_TYPE":"U","NORAD_CAT_ID":57023,"ELEMENT_SET_NO":999,"REV_AT_EPOCH":15149,"BSTAR":0.00067780507,"MEAN_MOTION_DOT":0.00020109,"MEAN_MOTION_DDOT":0},{"OBJECT_NAME":"STARLINK-34331","OBJECT_ID":"2025-117B","EPOCH":"2026-03-09T07:14:50.593344","MEAN_MOTION":15.30187866,"ECCENTRICITY":0.00013753,"INCLINATION":53.1615,"RA_OF_ASC_NODE":41.5976,"ARG_OF_PERICENTER":77.5931,"MEAN_ANOMALY":282.5224,"EPHEMERIS_TYPE":0,"CLASSIFICATION_TYPE":"U","NORAD_CAT_ID":64204,"ELEMENT_SET_NO":999,"REV_AT_EPOCH":4446,"BSTAR":0.00081344087,"MEAN_MOTION_DOT":0.00023801,"MEAN_MOTION_DDOT":0}]
